start=new Date('2021-12-25T00:00:00.000Z').valueOf();
sats=[{"CLASSIFICATION_TYPE":"U","MEAN_MOTION_DDOT":"0.0000000000000","ARG_OF_PERICENTER":"81.9216","MEAN_ANOMALY":"278.1909","APOAPSIS":"548.078","GP_ID":"192397735","SEMIMAJOR_AXIS":"6925.384","LAUNCH_DATE":"2021-02-04","OBJECT_NAME":"STARLINK-1969","NORAD_CAT_ID":"47570","PERIAPSIS":"546.420","DECAY_DATE":null,"MEAN_ELEMENT_THEORY":"SGP4","FILE":"3250462","EPOCH":"2021-12-24T21:03:53.354304","TLE_LINE2":"2 47570  53.0539  56.1486 0001197  81.9216 278.1909 15.06388317 49590","COUNTRY_CODE":"US","RCS_SIZE":"LARGE","CENTER_NAME":"EARTH","BSTAR":"-0.00004106800000","EPHEMERIS_TYPE":"0","INCLINATION":"53.0539","REV_AT_EPOCH":"4959","ELEMENT_SET_NO":"999","ECCENTRICITY":"0.00011970","SITE":"AFETR","OBJECT_ID":"2021-009Y","TIME_SYSTEM":"UTC","MEAN_MOTION_DOT":"-0.00000893","OBJECT_TYPE":"PAYLOAD","MEAN_MOTION":"15.06388317","RA_OF_ASC_NODE":"56.1486","REF_FRAME":"TEME","TLE_LINE1":"1 47570U 21009Y   21358.87770086 -.00000893  00000-0 -41068-4 0  9992","PERIOD":"95.593"},{"PERIOD":"95.593","TLE_LINE1":"1 47571U 21009Z   21358.88784754 -.00000347  00000-0 -44225-5 0  9994","REF_FRAME":"TEME","RA_OF_ASC_NODE":"66.1098","MEAN_MOTION":"15.06387981","OBJECT_TYPE":"PAYLOAD","MEAN_MOTION_DOT":"-0.00000347","TIME_SYSTEM":"UTC","OBJECT_ID":"2021-009Z","SITE":"AFETR","ECCENTRICITY":"0.00013640","ELEMENT_SET_NO":"999","INCLINATION":"53.0559","REV_AT_EPOCH":"4945","BSTAR":"-0.00000442250000","EPHEMERIS_TYPE":"0","CENTER_NAME":"EARTH","RCS_SIZE":"LARGE","TLE_LINE2":"2 47571  53.0559  66.1098 0001364  83.7692 276.3452 15.06387981 49451","COUNTRY_CODE":"US","EPOCH":"2021-12-24T21:18:30.027456","FILE":"3250462","MEAN_ELEMENT_THEORY":"SGP4","DECAY_DATE":null,"PERIAPSIS":"546.306","NORAD_CAT_ID":"47571","OBJECT_NAME":"STARLINK-1970","LAUNCH_DATE":"2021-02-04","SEMIMAJOR_AXIS":"6925.385","GP_ID":"192396483","APOAPSIS":"548.195","MEAN_ANOMALY":"276.3452","ARG_OF_PERICENTER":"83.7692","MEAN_MOTION_DDOT":"0.0000000000000","CLASSIFICATION_TYPE":"U"},{"MEAN_MOTION_DDOT":"0.0000000000000","CLASSIFICATION_TYPE":"U","MEAN_ANOMALY":"283.0103","APOAPSIS":"548.186","ARG_OF_PERICENTER":"77.1045","SEMIMAJOR_AXIS":"6925.335","GP_ID":"192396733","NORAD_CAT_ID":"47572","PERIAPSIS":"546.215","OBJECT_NAME":"STARLINK-1971","LAUNCH_DATE":"2021-02-04","DECAY_DATE":null,"FILE":"3250462","MEAN_ELEMENT_THEORY":"SGP4","COUNTRY_CODE":"US","TLE_LINE2":"2 47572  53.0564  67.0680 0001423  77.1045 283.0103 15.06404312 49423","EPOCH":"2021-12-24T16:05:20.462208","CENTER_NAME":"EARTH","RCS_SIZE":"LARGE","ELEMENT_SET_NO":"999","INCLINATION":"53.0564","REV_AT_EPOCH":"4942","EPHEMERIS_TYPE":"0","BSTAR":"0.00038668000000","OBJECT_ID":"2021-009AA","TIME_SYSTEM":"UTC","ECCENTRICITY":"0.00014230","SITE":"AFETR","MEAN_MOTION_DOT":"0.00005483","OBJECT_TYPE":"PAYLOAD","MEAN_MOTION":"15.06404312","REF_FRAME":"TEME","RA_OF_ASC_NODE":"67.0680","PERIOD":"95.592","TLE_LINE1":"1 47572U 21009AA  21358.67037572  .00005483  00000-0  38668-3 0  9997"},{"SITE":"AFETR","ECCENTRICITY":"0.00010190","OBJECT_ID":"2021-009AB","TIME_SYSTEM":"UTC","BSTAR":"0.00025185000000","EPHEMERIS_TYPE":"0","INCLINATION":"53.0566","REV_AT_EPOCH":"4940","ELEMENT_SET_NO":"999","MEAN_MOTION_DOT":"0.00003472","MEAN_MOTION":"15.06397068","OBJECT_TYPE":"PAYLOAD","TLE_LINE1":"1 47573U 21009AB  21358.58189804  .00003472  00000-0  25185-3 0  9990","PERIOD":"95.592","RA_OF_ASC_NODE":"67.4657","REF_FRAME":"TEME","ARG_OF_PERICENTER":"82.6317","APOAPSIS":"547.928","MEAN_ANOMALY":"277.4788","CLASSIFICATION_TYPE":"U","MEAN_MOTION_DDOT":"0.0000000000000","LAUNCH_DATE":"2021-02-04","OBJECT_NAME":"STARLINK-1975","NORAD_CAT_ID":"47573","PERIAPSIS":"546.517","GP_ID":"192397984","SEMIMAJOR_AXIS":"6925.358","MEAN_ELEMENT_THEORY":"SGP4","FILE":"3250462","DECAY_DATE":null,"RCS_SIZE":"LARGE","CENTER_NAME":"EARTH","COUNTRY_CODE":"US","TLE_LINE2":"2 47573  53.0566  67.4657 0001019  82.6317 277.4788 15.06397068 49401","EPOCH":"2021-12-24T13:57:55.990656"},{"FILE":"3250462","MEAN_ELEMENT_THEORY":"SGP4","DECAY_DATE":null,"CENTER_NAME":"EARTH","RCS_SIZE":"LARGE","TLE_LINE2":"2 47574  53.0558  97.1007 0001311  89.7150 270.3989 15.06387018 48992","COUNTRY_CODE":"US","EPOCH":"2021-12-24T15:56:02.555808","APOAPSIS":"548.161","MEAN_ANOMALY":"270.3989","ARG_OF_PERICENTER":"89.7150","MEAN_MOTION_DDOT":"0.0000000000000","CLASSIFICATION_TYPE":"U","PERIAPSIS":"546.345","NORAD_CAT_ID":"47574","OBJECT_NAME":"STARLINK-1976","LAUNCH_DATE":"2021-02-04","SEMIMAJOR_AXIS":"6925.388","GP_ID":"192398235","MEAN_MOTION":"15.06387018","OBJECT_TYPE":"PAYLOAD","PERIOD":"95.593","TLE_LINE1":"1 47574U 21009AC  21358.66391847  .00000479  00000-0  51092-4 0  9993","REF_FRAME":"TEME","RA_OF_ASC_NODE":"97.1007","TIME_SYSTEM":"UTC","OBJECT_ID":"2021-009AC","ECCENTRICITY":"0.00013110","SITE":"AFETR","ELEMENT_SET_NO":"999","REV_AT_EPOCH":"4899","INCLINATION":"53.0558","BSTAR":"0.00005109200000","EPHEMERIS_TYPE":"0","MEAN_MOTION_DOT":"0.00000479"},{"CENTER_NAME":"EARTH","RCS_SIZE":"LARGE","TLE_LINE2":"2 47575  53.0544  97.1519 0001304  97.5009 262.6129 15.06408996 48997","COUNTRY_CODE":"US","EPOCH":"2021-12-24T15:40:06.500928","MEAN_ELEMENT_THEORY":"SGP4","FILE":"3250462","DECAY_DATE":null,"OBJECT_NAME":"STARLINK-1977","LAUNCH_DATE":"2021-02-04","NORAD_CAT_ID":"47575","PERIAPSIS":"546.283","GP_ID":"192396983","SEMIMAJOR_AXIS":"6925.321","MEAN_ANOMALY":"262.6129","APOAPSIS":"548.089","ARG_OF_PERICENTER":"97.5009","CLASSIFICATION_TYPE":"U","MEAN_MOTION_DDOT":"0.0000000000000","TLE_LINE1":"1 47575U 21009AD  21358.65285302  .00005374  00000-0  37929-3 0  9992","PERIOD":"95.592","RA_OF_ASC_NODE":"97.1519","REF_FRAME":"TEME","MEAN_MOTION":"15.06408996","OBJECT_TYPE":"PAYLOAD","MEAN_MOTION_DOT":"0.00005374","OBJECT_ID":"2021-009AD","TIME_SYSTEM":"UTC","ECCENTRICITY":"0.00013040","SITE":"AFETR","BSTAR":"0.00037929000000","EPHEMERIS_TYPE":"0","ELEMENT_SET_NO":"999","REV_AT_EPOCH":"4899","INCLINATION":"53.0544"},{"RA_OF_ASC_NODE":"57.8996","REF_FRAME":"TEME","TLE_LINE1":"1 47576U 21009AE  21358.48698738  .00004124  00000-0  29554-3 0  9992","PERIOD":"95.592","OBJECT_TYPE":"PAYLOAD","MEAN_MOTION":"15.06404022","MEAN_MOTION_DOT":"0.00004124","EPHEMERIS_TYPE":"0","BSTAR":"0.00029554000000","REV_AT_EPOCH":"4953","INCLINATION":"53.0528","ELEMENT_SET_NO":"999","ECCENTRICITY":"0.00014520","SITE":"AFETR","OBJECT_ID":"2021-009AE","TIME_SYSTEM":"UTC","COUNTRY_CODE":"US","TLE_LINE2":"2 47576  53.0528  57.8996 0001452  66.8303 293.2839 15.06404022 49537","EPOCH":"2021-12-24T11:41:15.709632","RCS_SIZE":"LARGE","CENTER_NAME":"EARTH","DECAY_DATE":null,"MEAN_ELEMENT_THEORY":"SGP4","FILE":"3250080","GP_ID":"192365196","SEMIMAJOR_AXIS":"6925.336","LAUNCH_DATE":"2021-02-04","OBJECT_NAME":"STARLINK-1978","NORAD_CAT_ID":"47576","PERIAPSIS":"546.196","CLASSIFICATION_TYPE":"U","MEAN_MOTION_DDOT":"0.0000000000000","ARG_OF_PERICENTER":"66.8303","APOAPSIS":"548.207","MEAN_ANOMALY":"293.2839"},{"DECAY_DATE":null,"FILE":"3250462","MEAN_ELEMENT_THEORY":"SGP4","EPOCH":"2021-12-24T20:38:00.333312","TLE_LINE2":"2 47577  53.0531  71.2394 0001389  88.8822 271.2326 15.06394064 49387","COUNTRY_CODE":"US","RCS_SIZE":"LARGE","CENTER_NAME":"EARTH","MEAN_MOTION_DDOT":"0.0000000000000","CLASSIFICATION_TYPE":"U","ARG_OF_PERICENTER":"88.8822","APOAPSIS":"548.194","MEAN_ANOMALY":"271.2326","SEMIMAJOR_AXIS":"6925.367","GP_ID":"192397485","PERIAPSIS":"546.270","NORAD_CAT_ID":"47577","LAUNCH_DATE":"2021-02-04","OBJECT_NAME":"STARLINK-1979","OBJECT_TYPE":"PAYLOAD","MEAN_MOTION":"15.06394064","REF_FRAME":"TEME","RA_OF_ASC_NODE":"71.2394","PERIOD":"95.593","TLE_LINE1":"1 47577U 21009AF  21358.85972608 -.00002220  00000-0 -13018-3 0  9990","REV_AT_EPOCH":"4938","INCLINATION":"53.0531","ELEMENT_SET_NO":"999","BSTAR":"-0.00013018000000","EPHEMERIS_TYPE":"0","SITE":"AFETR","ECCENTRICITY":"0.00013890","TIME_SYSTEM":"UTC","OBJECT_ID":"2021-009AF","MEAN_MOTION_DOT":"-0.00002220"},{"RA_OF_ASC_NODE":"76.8428","REF_FRAME":"TEME","TLE_LINE1":"1 47578U 21009AG  21358.72104413 -.00000246  00000-0  23767-5 0  9997","PERIOD":"95.593","OBJECT_TYPE":"PAYLOAD","MEAN_MOTION":"15.06384423","MEAN_MOTION_DOT":"-0.00000246","EPHEMERIS_TYPE":"0","BSTAR":"0.00000237670000","INCLINATION":"53.0546","REV_AT_EPOCH":"4928","ELEMENT_SET_NO":"999","ECCENTRICITY":"0.00012930","SITE":"AFETR","OBJECT_ID":"2021-009AG","TIME_SYSTEM":"UTC","EPOCH":"2021-12-24T17:18:18.212832","TLE_LINE2":"2 47578  53.0546  76.8428 0001293  92.0901 268.0236 15.06384423 49283","COUNTRY_CODE":"US","RCS_SIZE":"LARGE","CENTER_NAME":"EARTH","DECAY_DATE":null,"MEAN_ELEMENT_THEORY":"SGP4","FILE":"3250462","GP_ID":"192397736","SEMIMAJOR_AXIS":"6925.396","LAUNCH_DATE":"2021-02-04","OBJECT_NAME":"STARLINK-1980","PERIAPSIS":"546.366","NORAD_CAT_ID":"47578","CLASSIFICATION_TYPE":"U","MEAN_MOTION_DDOT":"0.0000000000000","ARG_OF_PERICENTER":"92.0901","MEAN_ANOMALY":"268.0236","APOAPSIS":"548.157"},{"RA_OF_ASC_NODE":"66.9260","REF_FRAME":"TEME","TLE_LINE1":"1 47579U 21009AH  21358.70354764  .00003987  00000-0  28644-3 0  9993","PERIOD":"95.592","OBJECT_TYPE":"PAYLOAD","MEAN_MOTION":"15.06398659","MEAN_MOTION_DOT":"0.00003987","BSTAR":"0.00028644000000","EPHEMERIS_TYPE":"0","ELEMENT_SET_NO":"999","INCLINATION":"53.0553","REV_AT_EPOCH":"4942","OBJECT_ID":"2021-009AH","TIME_SYSTEM":"UTC","ECCENTRICITY":"0.00014370","SITE":"AFETR","TLE_LINE2":"2 47579  53.0553  66.9260 0001437  80.7621 279.3531 15.06398659 49424","EPOCH":"2021-12-24T16:53:06.516096","COUNTRY_CODE":"US","CENTER_NAME":"EARTH","RCS_SIZE":"LARGE","DECAY_DATE":null,"MEAN_ELEMENT_THEORY":"SGP4","FILE":"3250462","GP_ID":"192396484","SEMIMAJOR_AXIS":"6925.353","OBJECT_NAME":"STARLINK-1981","LAUNCH_DATE":"2021-02-04","NORAD_CAT_ID":"47579","PERIAPSIS":"546.222","CLASSIFICATION_TYPE":"U","MEAN_MOTION_DDOT":"0.0000000000000","APOAPSIS":"548.213","MEAN_ANOMALY":"279.3531","ARG_OF_PERICENTER":"80.7621"}];
